{
  "type": "FeatureCollection",
  "features": [
    {
      "type": "Feature",
      "properties": {
        "norad_id": 30494,
        "name": "FENGYUN 1C DEB",
        "group": "fengyun-1c-debris",
        "lat": 49.50090540813915,
        "lon": 8.02051223915656,
        "alt_km": 1097.9349858962178,
        "timestamp": "2025-12-09T14:52:26.438587+00:00",
        "meta_object_name": "FENGYUN 1C DEB",
        "meta_object_id": "1999-025AHG",
        "meta_epoch": "2025-12-07T01:41:28.106016",
        "meta_mean_motion": 13.793444,
        "meta_eccentricity": 0.01856403,
        "meta_inclination": 99.2827,
        "meta_ra_of_asc_node": 16.5615,
        "meta_arg_of_pericenter": 237.1866,
        "meta_mean_anomaly": 121.1289,
        "meta_ephemeris_type": 0,
        "meta_classification_type": "U",
        "meta_norad_cat_id": 30494,
        "meta_element_set_no": 999,
        "meta_rev_at_epoch": 94408,
        "meta_bstar": 0.0022953842,
        "meta_mean_motion_dot": 2.638e-05,
        "meta_mean_motion_ddot": 0,
        "tle_line1": "1 30494U 99025AHG 25341.07046419  .00002638  00000+0  22954-2 0  9993",
        "tle_line2": "2 30494  99.2827  16.5615 0185640 237.1866 121.1289 13.79344400944084"
      },
      "geometry": {
        "type": "Point",
        "coordinates": [
          8.02051223915656,
          49.50090540813915
        ]
      }
    },
    {
      "type": "Feature",
      "properties": {
        "norad_id": 30495,
        "name": "FENGYUN 1C DEB",
        "group": "fengyun-1c-debris",
        "lat": -74.50209666147809,
        "lon": 123.66162315277616,
        "alt_km": 836.7681696362188,
        "timestamp": "2025-12-09T14:52:26.438597+00:00",
        "meta_object_name": "FENGYUN 1C DEB",
        "meta_object_id": "1999-025AHH",
        "meta_epoch": "2025-12-07T16:52:58.296000",
        "meta_mean_motion": 12.94355342,
        "meta_eccentricity": 0.05967428,
        "meta_inclination": 102.2606,
        "meta_ra_of_asc_node": 69.8716,
        "meta_arg_of_pericenter": 276.9515,
        "meta_mean_anomaly": 76.4096,
        "meta_ephemeris_type": 0,
        "meta_classification_type": "U",
        "meta_norad_cat_id": 30495,
        "meta_element_set_no": 999,
        "meta_rev_at_epoch": 88608,
        "meta_bstar": 0.0054623354,
        "meta_mean_motion_dot": 3.361e-05,
        "meta_mean_motion_ddot": 0,
        "tle_line1": "1 30495U 99025AHH 25341.70345250  .00003361  00000+0  54623-2 0  9991",
        "tle_line2": "2 30495 102.2606  69.8716 0596742 276.9515  76.4096 12.94355342886085"
      },
      "geometry": {
        "type": "Point",
        "coordinates": [
          123.66162315277616,
          -74.50209666147809
        ]
      }
    },
    {
      "type": "Feature",
      "properties": {
        "norad_id": 30496,
        "name": "FENGYUN 1C DEB",
        "group": "fengyun-1c-debris",
        "lat": 68.81770731859957,
        "lon": -134.42204589654116,
        "alt_km": 505.11205220148076,
        "timestamp": "2025-12-09T14:52:26.438608+00:00",
        "meta_object_name": "FENGYUN 1C DEB",
        "meta_object_id": "1999-025AHJ",
        "meta_epoch": "2025-12-08T06:25:02.070048",
        "meta_mean_motion": 14.94168932,
        "meta_eccentricity": 0.01301407,
        "meta_inclination": 98.7828,
        "meta_ra_of_asc_node": 247.5799,
        "meta_arg_of_pericenter": 111.7663,
        "meta_mean_anomaly": 249.7462,
        "meta_ephemeris_type": 0,
        "meta_classification_type": "U",
        "meta_norad_cat_id": 30496,
        "meta_element_set_no": 999,
        "meta_rev_at_epoch": 1077,
        "meta_bstar": 0.00063322731,
        "meta_mean_motion_dot": 7.945e-05,
        "meta_mean_motion_ddot": 0,
        "tle_line1": "1 30496U 99025AHJ 25342.26738507  .00007945  00000+0  63323-3 0  9995",
        "tle_line2": "2 30496  98.7828 247.5799 0130140 111.7663 249.7462 14.94168932 10779"
      },
      "geometry": {
        "type": "Point",
        "coordinates": [
          -134.42204589654116,
          68.81770731859957
        ]
      }
    },
    {
      "type": "Feature",
      "properties": {
        "norad_id": 30498,
        "name": "FENGYUN 1C DEB",
        "group": "fengyun-1c-debris",
        "lat": 76.54917260384752,
        "lon": -102.44201338111043,
        "alt_km": 832.2791010656993,
        "timestamp": "2025-12-09T14:52:26.438619+00:00",
        "meta_object_name": "FENGYUN 1C DEB",
        "meta_object_id": "1999-025AHL",
        "meta_epoch": "2025-12-09T02:42:26.549856",
        "meta_mean_motion": 14.0602874,
        "meta_eccentricity": 0.01048188,
        "meta_inclination": 99.237,
        "meta_ra_of_asc_node": 34.167,
        "meta_arg_of_pericenter": 165.6468,
        "meta_mean_anomaly": 250.6355,
        "meta_ephemeris_type": 0,
        "meta_classification_type": "U",
        "meta_norad_cat_id": 30498,
        "meta_element_set_no": 999,
        "meta_rev_at_epoch": 95718,
        "meta_bstar": 0.0019739718,
        "meta_mean_motion_dot": 3.358e-05,
        "meta_mean_motion_ddot": 0,
        "tle_line1": "1 30498U 99025AHL 25343.11280729  .00003358  00000+0  19740-2 0  9997",
        "tle_line2": "2 30498  99.2370  34.1670 0104818 165.6468 250.6355 14.06028740957183"
      },
      "geometry": {
        "type": "Point",
        "coordinates": [
          -102.44201338111043,
          76.54917260384752
        ]
      }
    },
    {
      "type": "Feature",
      "properties": {
        "norad_id": 30500,
        "name": "FENGYUN 1C DEB",
        "group": "fengyun-1c-debris",
        "lat": 72.09286426364353,
        "lon": -75.35893697217124,
        "alt_km": 756.8868845288835,
        "timestamp": "2025-12-09T14:52:26.438629+00:00",
        "meta_object_name": "FENGYUN 1C DEB",
        "meta_object_id": "1999-025AHN",
        "meta_epoch": "2025-12-09T04:37:29.469216",
        "meta_mean_motion": 14.25126542,
        "meta_eccentricity": 0.00652424,
        "meta_inclination": 99.0722,
        "meta_ra_of_asc_node": 74.5647,
        "meta_arg_of_pericenter": 126.407,
        "meta_mean_anomaly": 309.5863,
        "meta_ephemeris_type": 0,
        "meta_classification_type": "U",
        "meta_norad_cat_id": 30500,
        "meta_element_set_no": 999,
        "meta_rev_at_epoch": 96631,
        "meta_bstar": 0.003237812,
        "meta_mean_motion_dot": 7.729e-05,
        "meta_mean_motion_ddot": 0,
        "tle_line1": "1 30500U 99025AHN 25343.19270219  .00007729  00000+0  32378-2 0  9990",
        "tle_line2": "2 30500  99.0722  74.5647 0065242 126.4070 309.5863 14.25126542966312"
      },
      "geometry": {
        "type": "Point",
        "coordinates": [
          -75.35893697217124,
          72.09286426364353
        ]
      }
    },
    {
      "type": "Feature",
      "properties": {
        "norad_id": 30501,
        "name": "FENGYUN 1C DEB",
        "group": "fengyun-1c-debris",
        "lat": 50.07007862088657,
        "lon": -36.70452570883618,
        "alt_km": 830.434104105665,
        "timestamp": "2025-12-09T14:52:26.438640+00:00",
        "meta_object_name": "FENGYUN 1C DEB",
        "meta_object_id": "1999-025AHP",
        "meta_epoch": "2025-12-08T21:55:34.207968",
        "meta_mean_motion": 14.25294423,
        "meta_eccentricity": 0.00406,
        "meta_inclination": 99.0839,
        "meta_ra_of_asc_node": 333.584,
        "meta_arg_of_pericenter": 214.0786,
        "meta_mean_anomaly": 175.7599,
        "meta_ephemeris_type": 0,
        "meta_classification_type": "U",
        "meta_norad_cat_id": 30501,
        "meta_element_set_no": 999,
        "meta_rev_at_epoch": 96865,
        "meta_bstar": 0.0021422,
        "meta_mean_motion_dot": 5.042e-05,
        "meta_mean_motion_ddot": 0,
        "tle_line1": "1 30501U 99025AHP 25342.91359037  .00005042  00000+0  21422-2 0  9990",
        "tle_line2": "2 30501  99.0839 333.5840 0040600 214.0786 175.7599 14.25294423968656"
      },
      "geometry": {
        "type": "Point",
        "coordinates": [
          -36.70452570883618,
          50.07007862088657
        ]
      }
    },
    {
      "type": "Feature",
      "properties": {
        "norad_id": 30503,
        "name": "FENGYUN 1C DEB",
        "group": "fengyun-1c-debris",
        "lat": 10.050984154732115,
        "lon": -174.61197063459917,
        "alt_km": 840.4053974363496,
        "timestamp": "2025-12-09T14:52:26.438650+00:00",
        "meta_object_name": "FENGYUN 1C DEB",
        "meta_object_id": "1999-025AHR",
        "meta_epoch": "2025-12-09T04:58:01.581600",
        "meta_mean_motion": 14.16119454,
        "meta_eccentricity": 0.0008328,
        "meta_inclination": 99.2047,
        "meta_ra_of_asc_node": 186.6086,
        "meta_arg_of_pericenter": 277.5283,
        "meta_mean_anomaly": 149.4326,
        "meta_ephemeris_type": 0,
        "meta_classification_type": "U",
        "meta_norad_cat_id": 30503,
        "meta_element_set_no": 999,
        "meta_rev_at_epoch": 97296,
        "meta_bstar": 0.00047960415,
        "meta_mean_motion_dot": 9.01e-06,
        "meta_mean_motion_ddot": 0,
        "tle_line1": "1 30503U 99025AHR 25343.20696275  .00000901  00000+0  47960-3 0  9998",
        "tle_line2": "2 30503  99.2047 186.6086 0008328 277.5283 149.4326 14.16119454972962"
      },
      "geometry": {
        "type": "Point",
        "coordinates": [
          -174.61197063459917,
          10.050984154732115
        ]
      }
    }
  ]
}